NORAD_CAT_ID,OBJECT_NAME,OBJECT_TYPE,EPOCH,MEAN_MOTION,ECCENTRICITY,INCLINATION,RA_OF_ASC_NODE,ARG_OF_PERICENTER,MEAN_ANOMALY,BSTAR,MEAN_MOTION_DOT,MEAN_MOTION_DDOT,TLE_LINE0,TLE_LINE1,TLE_LINE2,SEMIMAJOR_AXIS,PERIOD,APOGEE,PERIGEE,DECAYED
52850.0,STARLINK-4187,PAYLOAD,2024-07-23 15:27:12,15.08852088,0.0001272,53.2164,181.2535,85.3151,274.7987,0.00020461,2.971e-05,0.0,0 STARLINK-4187,1 52850U 22062W   24205.64389289  .00002971  00000-0  20461-3 0  9999,2 52850  53.2164 181.2535 0001272  85.3151 274.7987 15.08852088116594,6917.843,95.437,540.588,538.828,0.0
52850.0,STARLINK-4187,PAYLOAD,2024-07-24 05:45:42,15.08825935,0.0001453,53.2163,178.5778,90.8384,269.2775,-6.5082e-06,-3.91e-06,0.0,0 STARLINK-4187,1 52850U 22062W   24206.24007926 -.00000391  00000-0 -65082-5 0  9997,2 52850  53.2163 178.5778 0001453  90.8384 269.2775 15.08825935116686,6917.923,95.438,540.794,538.783,0.0
52850.0,STARLINK-4187,PAYLOAD,2024-07-24 07:21:05,15.08826971,0.0001426,53.216,178.2802,89.1562,270.9594,1.9447e-06,-2.57e-06,0.0,0 STARLINK-4187,1 52850U 22062W   24206.30631916 -.00000257  00000-0  19447-5 0  9990,2 52850  53.2160 178.2802 0001426  89.1562 270.9594 15.08826971116204,6917.92,95.438,540.772,538.799,0.0
52850.0,STARLINK-4187,PAYLOAD,2024-07-24 21:39:33,15.08840124,0.0001454,53.2165,175.6035,88.2217,271.8941,9.9357e-05,1.294e-05,0.0,0 STARLINK-4187,1 52850U 22062W   24206.90247143  .00001294  00000-0  99357-4 0  9999,2 52850  53.2165 175.6035 0001454  88.2217 271.8941 15.08840124116781,6917.88,95.438,540.751,538.739,0.0
52850.0,STARLINK-4187,PAYLOAD,2024-07-25 05:36:28,15.08848974,0.0001543,53.2159,174.1172,87.4529,272.664,0.00022276,3.26e-05,0.0,0 STARLINK-4187,1 52850U 22062W   24207.23366583  .00003260  00000-0  22276-3 0  9996,2 52850  53.2159 174.1172 0001543  87.4529 272.6640 15.08848974116838,6917.853,95.437,540.785,538.651,0.0
52850.0,STARLINK-4187,PAYLOAD,2024-07-26 03:51:52,15.08848204,0.0001598,53.2158,169.9543,91.6105,268.507,0.00034738,5.246e-05,0.0,0 STARLINK-4187,1 52850U 22062W   24208.16102791  .00005246  00000-0  34738-3 0  9990,2 52850  53.2158 169.9543 0001598  91.6105 268.5070 15.08848204116970,6917.855,95.437,540.826,538.615,0.0
52850.0,STARLINK-4187,PAYLOAD,2024-07-26 07:02:38,15.08850605,0.00016,53.2157,169.3595,91.8006,268.3169,0.00036662,5.553e-05,0.0,0 STARLINK-4187,1 52850U 22062W   24208.29350681  .00005553  00000-0  36662-3 0  9996,2 52850  53.2157 169.3595 0001600  91.8006 268.3169 15.08850605116500,6917.848,95.437,540.82,538.606,0.0
52850.0,STARLINK-4187,PAYLOAD,2024-07-26 14:59:34,15.0885627,0.0001653,53.2152,167.8716,92.508,267.6102,0.0003972,6.042e-05,0.0,0 STARLINK-4187,1 52850U 22062W   24208.62470229  .00006042  00000-0  39720-3 0  9996,2 52850  53.2152 167.8716 0001653  92.5080 267.6102 15.08856270116559,6917.831,95.437,540.839,538.552,0.0
52850.0,STARLINK-4187,PAYLOAD,2024-07-27 03:42:39,15.08845934,0.0001918,53.217,165.493,96.5447,263.5763,0.00019103,2.754e-05,0.0,0 STARLINK-4187,1 52850U 22062W   24209.15462418  .00002754  00000-0  19103-3 0  9995,2 52850  53.2170 165.4930 0001918  96.5447 263.5763 15.08845934117123,6917.862,95.437,541.054,538.4,0.0
52850.0,STARLINK-4187,PAYLOAD,2024-07-27 21:11:54,15.08840791,0.0001668,53.2176,162.2221,98.4177,261.7004,0.0001039,1.366e-05,0.0,0 STARLINK-4187,1 52850U 22062W   24209.88326550  .00001366  00000-0  10390-3 0  9998,2 52850  53.2176 162.2221 0001668  98.4177 261.7004 15.08840791116741,6917.878,95.438,540.897,538.589,0.0
52850.0,STARLINK-4187,PAYLOAD,2024-07-28 03:33:27,15.08835057,0.0001676,53.2181,161.0333,96.4886,263.6297,-7.0048e-05,-1.403e-05,0.0,0 STARLINK-4187,1 52850U 22062W   24210.14822920 -.00001403  00000-0 -70048-4 0  9992,2 52850  53.2181 161.0333 0001676  96.4886 263.6297 15.08835057117275,6917.895,95.438,540.92,538.601,0.0
52850.0,STARLINK-4187,PAYLOAD,2024-07-29 12:56:32,15.08841735,0.0001366,53.2175,154.7885,89.684,270.4309,0.00011591,1.557e-05,0.0,0 STARLINK-4187,1 52850U 22062W   24211.53926800  .00001557  00000-0  11591-3 0  9993,2 52850  53.2175 154.7885 0001366  89.6840 270.4309 15.08841735117482,6917.875,95.437,540.685,538.795,0.0
52850.0,STARLINK-4187,PAYLOAD,2024-07-29 20:53:28,15.08845489,0.0001699,53.2191,153.3089,106.9634,253.1544,-8.3446e-05,-1.616e-05,0.0,0 STARLINK-4187,1 52850U 22062W   24211.87047366 -.00001616  00000-0 -83446-4 0  9998,2 52850  53.2191 153.3089 0001699 106.9634 253.1544 15.08845489117045,6917.864,95.437,540.904,538.553,0.0
52850.0,STARLINK-4187,PAYLOAD,2024-07-30 03:15:01,15.0883164,0.0001438,53.2182,152.1158,104.6466,255.4685,0.00011771,1.585e-05,0.0,0 STARLINK-4187,1 52850U 22062W   24212.13543751  .00001585  00000-0  11771-3 0  9991,2 52850  53.2182 152.1158 0001438 104.6466 255.4685 15.08831640117571,6917.906,95.438,540.766,538.776,0.0
52850.0,STARLINK-4187,PAYLOAD,2024-07-30 12:47:19,15.08847805,0.0001362,53.2184,150.3306,98.731,261.3837,0.00021997,3.215e-05,0.0,0 STARLINK-4187,1 52850U 22062W   24212.53286638  .00003215  00000-0  21997-3 0  9996,2 52850  53.2184 150.3306 0001362  98.7310 261.3837 15.08847805117637,6917.857,95.437,540.664,538.779,0.0
52850.0,STARLINK-4187,PAYLOAD,2024-07-31 03:05:48,15.08848473,0.0001381,53.2178,147.6531,85.3861,274.7289,0.00015212,2.134e-05,0.0,0 STARLINK-4187,1 52850U 22062W   24213.12902786  .00002134  00000-0  15212-3 0  9993,2 52850  53.2178 147.6531 0001381  85.3861 274.7289 15.08848473117724,6917.854,95.437,540.675,538.764,0.0
52850.0,STARLINK-4187,PAYLOAD,2024-08-01 02:56:35,15.08836102,0.0001194,53.2173,143.1931,79.354,280.7586,5.2958e-05,5.55e-06,0.0,0 STARLINK-4187,1 52850U 22062W   24214.12263756  .00000555  00000-0  52958-4 0  9995,2 52850  53.2173 143.1931 0001194  79.3540 280.7586 15.08836102117872,6917.892,95.438,540.583,538.931,0.0
52850.0,STARLINK-4187,PAYLOAD,2024-08-02 02:47:21,15.08852112,0.0001122,53.2169,138.7314,83.2601,276.8519,4.9033e-05,4.93e-06,0.0,0 STARLINK-4187,1 52850U 22062W   24215.11622568  .00000493  00000-0  49033-4 0  9996,2 52850  53.2169 138.7314 0001122  83.2601 276.8519 15.08852112118024,6917.843,95.437,540.485,538.932,0.0
52850.0,STARLINK-4187,PAYLOAD,2024-08-02 12:19:40,15.08856451,0.0001201,53.2174,136.9478,86.7459,273.367,0.00013878,1.922e-05,0.0,0 STARLINK-4187,1 52850U 22062W   24215.51365891  .00001922  00000-0  13878-3 0  9998,2 52850  53.2174 136.9478 0001201  86.7459 273.3670 15.08856451117599,6917.83,95.437,540.526,538.864,0.0
52850.0,STARLINK-4187,PAYLOAD,2024-08-03 04:13:33,15.0883203,0.0001295,53.2158,133.9727,103.1614,256.9523,5.1231e-05,5.27e-06,0.0,0 STARLINK-4187,1 52850U 22062W   24216.17608008  .00000527  00000-0  51231-4 0  9997,2 52850  53.2158 133.9727 0001295 103.1614 256.9523 15.08832030118182,6917.905,95.438,540.666,538.874,0.0
52850.0,STARLINK-4187,PAYLOAD,2024-08-03 21:42:47,15.08842545,0.0001448,53.2163,130.7007,107.4268,252.6883,5.5542e-05,5.96e-06,0.0,0 STARLINK-4187,1 52850U 22062W   24216.90471558  .00000596  00000-0  55542-4 0  9991,2 52850  53.2163 130.7007 0001448 107.4268 252.6883 15.08842545117808,6917.873,95.437,540.739,538.736,0.0
52850.0,STARLINK-4187,PAYLOAD,2024-08-04 04:04:19,15.08847787,0.0001448,53.2171,129.5106,111.728,248.3867,0.00015642,2.203e-05,0.0,0 STARLINK-4187,1 52850U 22062W   24217.16967345  .00002203  00000-0  15642-3 0  9997,2 52850  53.2171 129.5106 0001448 111.7280 248.3867 15.08847787118331,6917.857,95.437,540.723,538.72,0.0
52850.0,STARLINK-4187,PAYLOAD,2024-08-04 21:33:34,15.08848335,0.0001302,53.2167,126.2388,92.6184,267.4957,0.00042969,6.559e-05,0.0,0 STARLINK-4187,1 52850U 22062W   24217.89831727  .00006559  00000-0  42969-3 0  9991,2 52850  53.2167 126.2388 0001302  92.6184 267.4957 15.08848335118445,6917.855,95.437,540.621,538.819,0.0
52850.0,STARLINK-4187,PAYLOAD,2024-08-05 21:24:22,15.08831918,0.0001249,53.2166,121.7783,101.8728,258.2404,-6.8587e-05,-1.379e-05,0.0,0 STARLINK-4187,1 52850U 22062W   24218.89192473 -.00001379  00000-0 -68587-4 0  9992,2 52850  53.2166 121.7783 0001249 101.8728 258.2404 15.08831918118590,6917.905,95.438,540.634,538.906,0.0
52850.0,STARLINK-4187,PAYLOAD,2024-08-05 22:59:45,15.08812599,0.0001392,53.2164,121.481,106.61,253.5045,-0.0004841,-7.978e-05,0.0,0 STARLINK-4187,1 52850U 22062W   24218.95816951 -.00007978  00000-0 -48410-3 0  9996,2 52850  53.2164 121.4810 0001392 106.6100 253.5045 15.08812599118113,6917.964,95.439,540.792,538.866,0.0
52850.0,STARLINK-4187,PAYLOAD,2024-08-06 00:35:09,15.0881474,0.0001096,53.2158,121.184,89.9786,270.1332,-0.00040339,-6.697e-05,0.0,0 STARLINK-4187,1 52850U 22062W   24219.02441073 -.00006697  00000-0 -40339-3 0  9993,2 52850  53.2158 121.1840 0001096  89.9786 270.1332 15.08814740118619,6917.958,95.439,540.581,539.064,0.0
52850.0,STARLINK-4187,PAYLOAD,2024-08-06 21:15:10,15.08834529,0.0001484,53.2167,117.324,113.6596,246.4552,0.00013439,1.851e-05,0.0,0 STARLINK-4187,1 52850U 22062W   24219.88553276  .00001851  00000-0  13439-3 0  9992,2 52850  53.2167 117.3240 0001484 113.6596 246.4552 15.08834529118746,6917.897,95.438,540.789,538.735,0.0
52850.0,STARLINK-4187,PAYLOAD,2024-08-06 22:50:33,15.08837595,0.0001605,53.2168,117.0276,117.1313,242.9843,0.00020392,2.959e-05,0.0,0 STARLINK-4187,1 52850U 22062W   24219.95177214  .00002959  00000-0  20392-3 0  9990,2 52850  53.2168 117.0276 0001605 117.1313 242.9843 15.08837595118261,6917.888,95.438,540.863,538.642,0.0
52850.0,STARLINK-4187,PAYLOAD,2024-08-07 21:05:56,15.08849351,0.0001676,53.2167,112.8648,127.8252,232.2892,0.00057619,8.896e-05,0.0,0 STARLINK-4187,1 52850U 22062W   24220.87913068  .00008896  00000-0  57619-3 0  9996,2 52850  53.2167 112.8648 0001676 127.8252 232.2892 15.08849351118409,6917.852,95.437,540.876,538.557,0.0
52850.0,STARLINK-4187,PAYLOAD,2024-08-08 01:52:06,15.08854294,0.0001278,53.2152,111.9687,117.4082,242.704,0.00054333,8.373e-05,0.0,0 STARLINK-4187,1 52850U 22062W   24221.07784784  .00008373  00000-0  54333-3 0  9990,2 52850  53.2152 111.9687 0001278 117.4082 242.7040 15.08854294118436,6917.837,95.437,540.586,538.818,0.0
